$$SOE
2460714.500000000, A.D. 2025-Feb-08 00:00:00.0000, 2.545554132895437E+08, -2.302425535859741E+08, 2.686522541813552E+07,
2460721.500000000, A.D. 2025-Feb-15 00:00:00.0000, 2.602026050440323E+08, -2.190874969937502E+08, 2.704097910980799E+07,
2460728.500000000, A.D. 2025-Feb-22 00:00:00.0000, 2.655318522606116E+08, -2.076648693022388E+08, 2.718369236675718E+07,
2460735.500000000, A.D. 2025-Mar-01 00:00:00.0000, 2.705278218375458E+08, -1.959817274255621E+08, 2.729228738008516E+07,
2460742.500000000, A.D. 2025-Mar-08 00:00:00.0000, 2.751749972879561E+08, -1.840460350120217E+08, 2.736569446690968E+07,
2460749.500000000, A.D. 2025-Mar-15 00:00:00.0000, 2.794577261825726E+08, -1.718667151644336E+08, 2.740285753624004E+07,
2460756.500000000, A.D. 2025-Mar-22 00:00:00.0000, 2.833602728299785E+08, -1.594537039900649E+08, 2.740274024063956E+07,
2460763.500000000, A.D. 2025-Mar-29 00:00:00.0000, 2.868668802625921E+08, -1.468180050144297E+08, 2.736433243507426E+07,
2460770.500000000, A.D. 2025-Apr-05 00:00:00.0000, 2.899618422911873E+08, -1.339717403825622E+08, 2.728665718066423E+07,
2460777.500000000, A.D. 2025-Apr-12 00:00:00.0000, 2.926295840596304E+08, -1.209281976742783E+08, 2.716877848014140E+07,
2460784.500000000, A.D. 2025-Apr-19 00:00:00.0000, 2.948547511591228E+08, -1.077018720111264E+08, 2.700980967917549E+07,
2460791.500000000, A.D. 2025-Apr-26 00:00:00.0000, 2.966223076778246E+08, -9.430850232369442E+07, 2.680892246592474E+07,
2460798.500000000, A.D. 2025-May-03 00:00:00.0000, 2.979176432283409E+08, -8.076510030579539E+07, 2.656535641636002E+07,
2460805.500000000, A.D. 2025-May-10 00:00:00.0000, 2.987266887001625E+08, -6.708997049095076E+07, 2.627842902011454E+07,
2460812.500000000, A.D. 2025-May-17 00:00:00.0000, 2.990360402464668E+08, -5.330271986195428E+07, 2.594754609480788E+07,
2460819.500000000, A.D. 2025-May-24 00:00:00.0000, 2.988330908694007E+08, -3.942425537995988E+07, 2.557221245839404E+07,
2460826.500000000, A.D. 2025-May-31 00:00:00.0000, 2.981061688950074E+08, -2.547676745771834E+07, 2.515204270955379E+07,
2460833.500000000, A.D. 2025-Jun-07 00:00:00.0000, 2.968446814794400E+08, -1.148369656164588E+07, 2.468677209003262E+07,
2460840.500000000, A.D. 2025-Jun-14 00:00:00.0000, 2.950392589916885E+08, 2.530317869191582E+06, 2.417626740875070E+07,
2460847.500000000, A.D. 2025-Jun-21 00:00:00.0000, 2.926818993443852E+08, 1.653950418453943E+07, 2.362053744027805E+07,
2460854.500000000, A.D. 2025-Jun-28 00:00:00.0000, 2.897661129073763E+08, 3.051704372535022E+07, 2.301974242343459E+07,
2460861.500000000, A.D. 2025-Jul-05 00:00:00.0000, 2.862870636959575E+08, 4.443517726296746E+07, 2.237420273036777E+07,
2460868.500000000, A.D. 2025-Jul-12 00:00:00.0000, 2.822417026064720E+08, 5.826533206388999E+07, 2.168440649647074E+07,
2460875.500000000, A.D. 2025-Jul-19 00:00:00.0000, 2.776288896726596E+08, 7.197826867906183E+07, 2.095101589087976E+07,
2460882.500000000, A.D. 2025-Jul-26 00:00:00.0000, 2.724495022436384E+08, 8.554424649597804E+07, 2.017487175238491E+07,
2460889.500000000, A.D. 2025-Aug-02 00:00:00.0000, 2.667065258553813E+08, 9.893320655628012E+07, 1.935699635018798E+07,
2460896.500000000, A.D. 2025-Aug-09 00:00:00.0000, 2.604051246749841E+08, 1.121149694854094E+08, 1.849859405965611E+07,
2460903.500000000, A.D. 2025-Aug-16 00:00:00.0000, 2.535526887539764E+08, 1.250594457278375E+08, 1.760104978044843E+07,
2460910.500000000, A.D. 2025-Aug-23 00:00:00.0000, 2.461588559955557E+08, 1.377368547885104E+08, 1.666592496737490E+07,
2460917.500000000, A.D. 2025-Aug-30 00:00:00.0000, 2.382355073455880E+08, 1.501179503647766E+08, 1.569495125546488E+07,
2460924.500000000, A.D. 2025-Sep-06 00:00:00.0000, 2.297967326210380E+08, 1.621742481428615E+08, 1.469002190451794E+07,
2460931.500000000, A.D. 2025-Sep-13 00:00:00.0000, 2.208587648993482E+08, 1.738782493246914E+08, 1.365318109797150E+07,
2460938.500000000, A.D. 2025-Sep-20 00:00:00.0000, 2.114398871719294E+08, 1.852036537009580E+08, 1.258661081307153E+07,
2460945.500000000, A.D. 2025-Sep-27 00:00:00.0000, 2.015603135612527E+08, 1.961255609207142E+08, 1.149261563276073E+07,
2460952.500000000, A.D. 2025-Oct-04 00:00:00.0000, 1.912420451277407E+08, 2.066206563140622E+08, 1.037360600364351E+07,
2460959.500000000, A.D. 2025-Oct-11 00:00:00.0000, 1.805087026866057E+08, 2.166673765829448E+08, 9.232080224083379E+06,
2460966.500000000, A.D. 2025-Oct-18 00:00:00.0000, 1.693853403523861E+08, 2.262460519258038E+08, 8.070605478174165E+06,
2460973.500000000, A.D. 2025-Oct-25 00:00:00.0000, 1.578982438852594E+08, 2.353390221470621E+08, 6.891798290678889E+06,
2460980.500000000, A.D. 2025-Nov-01 00:00:00.0000, 1.460747181535198E+08, 2.439307250878082E+08, 5.698304795136034E+06,
2460987.500000000, A.D. 2025-Nov-08 00:00:00.0000, 1.339428681900993E+08, 2.520077564877731E+08, 4.492781196272001E+06,
2460994.500000000, A.D. 2025-Nov-15 00:00:00.0000, 1.215313784292753E+08, 2.595589011797804E+08, 3.277874773362547E+06,
2461001.500000000, A.D. 2025-Nov-22 00:00:00.0000, 1.088692947960616E+08, 2.665751365740989E+08, 2.056205736273244E+06,
2461008.500000000, A.D. 2025-Nov-29 00:00:00.0000, 9.598581345470639E+07, 2.730496110038077E+08, 8.303503266194612E+05,
2461015.500000000, A.D. 2025-Dec-06 00:00:00.0000, 8.291007745947570E+07, 2.789775988082609E+08, -3.971744038952887E+05,
2461022.500000000, A.D. 2025-Dec-13 00:00:00.0000, 6.967098471314046E+07, 2.843564312758077E+08, -1.623924269605845E+06,
2461029.500000000, A.D. 2025-Dec-20 00:00:00.0000, 5.629701313022196E+07, 2.891854073441418E+08, -2.847540191391200E+06,
2461036.500000000, A.D. 2025-Dec-27 00:00:00.0000, 4.281606374522369E+07, 2.934656897287815E+08, -4.065758622067496E+06,
2461043.500000000, A.D. 2026-Jan-03 00:00:00.0000, 2.925532151491691E+07, 2.972001890256394E+08, -5.276420054028526E+06,
2461050.500000000, A.D. 2026-Jan-10 00:00:00.0000, 1.564113457012704E+07, 3.003934382509987E+08, -6.477475701994330E+06,
2461057.500000000, A.D. 2026-Jan-17 00:00:00.0000, 1.998912283758354E+06, 3.030514607428031E+08, -7.666992457424998E+06,
2461064.500000000, A.D. 2026-Jan-24 00:00:00.0000, -1.164695808577815E+07, 3.051816342522568E+08, -8.843156219992548E+06,
2461071.500000000, A.D. 2026-Jan-31 00:00:00.0000, -2.527317685425018E+07, 3.067925537588117E+08, -1.000427373327403E+07,
2461078.500000000, A.D. 2026-Feb-07 00:00:00.0000, -3.885758042231264E+07, 3.078938951895307E+08, -1.114877307624201E+07,
2461085.500000000, A.D. 2026-Feb-14 00:00:00.0000, -5.237917382522786E+07, 3.084962819445894E+08, -1.227520298641217E+07,
2461092.500000000, A.D. 2026-Feb-21 00:00:00.0000, -6.581814833562886E+07, 3.086111563985101E+08, -1.338223115890530E+07,
2461099.500000000, A.D. 2026-Feb-28 00:00:00.0000, -7.915588669969821E+07, 3.082506588098271E+08, -1.446864148388530E+07,
2461106.500000000, A.D. 2026-Mar-07 00:00:00.0000, -9.237495959070288E+07, 3.074275126633818E+08, -1.553333034445149E+07,
2461113.500000000, A.D. 2026-Mar-14 00:00:00.0000, -1.054591120245690E+08, 3.061549147943366E+08, -1.657530256051850E+07,
2461120.500000000, A.D. 2026-Mar-21 00:00:00.0000, -1.183932394412902E+08, 3.044464336426011E+08, -1.759366703742956E+07,
2461127.500000000, A.D. 2026-Mar-28 00:00:00.0000, -1.311633568613391E+08, 3.023159169109137E+08, -1.858763197376373E+07,
2461134.500000000, A.D. 2026-Apr-04 00:00:00.0000, -1.437565630202647E+08, 2.997774077102036E+08, -1.955649976001868E+07,
2461141.500000000, A.D. 2026-Apr-11 00:00:00.0000, -1.561610004010587E+08, 2.968450687289399E+08, -2.049966171743567E+07,
2461148.500000000, A.D. 2026-Apr-18 00:00:00.0000, -1.683658120814222E+08, 2.935331141977054E+08, -2.141659277459821E+07,
2461155.500000000, A.D. 2026-Apr-25 00:00:00.0000, -1.803610963048838E+08, 2.898557493487294E+08, -2.230684615529695E+07,
2461162.500000000, A.D. 2026-May-02 00:00:00.0000, -1.921378595784949E+08, 2.858271169558298E+08, -2.317004814176534E+07,
2461169.500000000, A.D. 2026-May-09 00:00:00.0000, -2.036879688882596E+08, 2.814612504528366E+08, -2.400589297767361E+07,
2461176.500000000, A.D. 2026-May-16 00:00:00.0000, -2.150041032605917E+08, 2.767720332980758E+08, -2.481413797091515E+07,
2461183.500000000, A.D. 2026-May-23 00:00:00.0000, -2.260797051280668E+08, 2.717731651172238E+08, -2.559459874475114E+07,
2461190.500000000, A.D. 2026-May-30 00:00:00.0000, -2.369089340053976E+08, 2.664781344543517E+08, -2.634714444183160E+07,
2461197.500000000, A.D. 2026-Jun-06 00:00:00.0000, -2.474866231393150E+08, 2.609001943822522E+08, -2.707169313616137E+07,
2461204.500000000, A.D. 2026-Jun-13 00:00:00.0000, -2.578082357347718E+08, 2.550523407072819E+08, -2.776820778324507E+07,
2461211.500000000, A.D. 2026-Jun-20 00:00:00.0000, -2.678698214684850E+08, 2.489472952525344E+08, -2.843669243015448E+07,
2461218.500000000, A.D. 2026-Jun-27 00:00:00.0000, -2.776679751407629E+08, 2.425974934675122E+08, -2.907718856167903E+07,
2461225.500000000, A.D. 2026-Jul-04 00:00:00.0000, -2.871997975642781E+08, 2.360150751986815E+08, -2.968977164482759E+07,
2461232.500000000, A.D. 2026-Jul-11 00:00:00.0000, -2.964628584951184E+08, 2.292118781210182E+08, -3.027454790105323E+07,
2461239.500000000, A.D. 2026-Jul-18 00:00:00.0000, -3.054551615417387E+08, 2.221994335162662E+08, -3.083165130604216E+07,
2461246.500000000, A.D. 2026-Jul-25 00:00:00.0000, -3.141751110295073E+08, 2.149889640897503E+08, -3.136124081125890E+07,
2461253.500000000, A.D. 2026-Aug-01 00:00:00.0000, -3.226214807530605E+08, 2.075913834951202E+08, -3.186349778678256E+07,
2461260.500000000, A.D. 2026-Aug-08 00:00:00.0000, -3.307933843641554E+08, 2.000172972756708E+08, -3.233862369850243E+07,
2461267.500000000, A.D. 2026-Aug-15 00:00:00.0000, -3.386902469285818E+08, 1.922770054424697E+08, -3.278683801080705E+07,
2461274.500000000, A.D. 2026-Aug-22 00:00:00.0000, -3.463117783520008E+08, 1.843805077040316E+08, -3.320837613487047E+07,
2461281.500000000, A.D. 2026-Aug-29 00:00:00.0000, -3.536579508970110E+08, 1.763375097919120E+08, -3.360348731502064E+07,
$$EOE